start=new Date('2021-10-03T00:00:00.000Z').valueOf();
sats=[{"CENTER_NAME":"EARTH","CLASSIFICATION_TYPE":"U","TLE_LINE1":"1 46702U 20073AJ  21275.44464648  .00003046  00000-0  22331-3 0  9995","TLE_LINE2":"2 46702  53.0562 290.6968 0002397 122.9655 237.1564 15.06404190 53357","DECAY_DATE":null,"ELEMENT_SET_NO":"999","RA_OF_ASC_NODE":"290.6968","OBJECT_NAME":"STARLINK-1802","PERIAPSIS":"545.541","BSTAR":"0.00022331000000","MEAN_MOTION_DDOT":"0.0000000000000","SITE":"AFETR","RCS_SIZE":"LARGE","EPOCH":"2021-10-02T10:40:17.455872","APOAPSIS":"548.861","ARG_OF_PERICENTER":"122.9655","MEAN_MOTION_DOT":"0.00003046","PERIOD":"95.592","REV_AT_EPOCH":"5335","ECCENTRICITY":"0.00023970","TIME_SYSTEM":"UTC","MEAN_MOTION":"15.06404190","MEAN_ELEMENT_THEORY":"SGP4","LAUNCH_DATE":"2020-10-18","COUNTRY_CODE":"US","REF_FRAME":"TEME","OBJECT_TYPE":"PAYLOAD","INCLINATION":"53.0562","NORAD_CAT_ID":"46702","EPHEMERIS_TYPE":"0","MEAN_ANOMALY":"237.1564","SEMIMAJOR_AXIS":"6925.336","GP_ID":"186051697","OBJECT_ID":"2020-073AJ","FILE":"3141323"},{"ARG_OF_PERICENTER":"86.9286","MEAN_MOTION_DOT":"0.00002060","MEAN_MOTION_DDOT":"0.0000000000000","SITE":"AFETR","RCS_SIZE":"LARGE","APOAPSIS":"548.149","EPOCH":"2021-10-02T11:25:23.235168","PERIAPSIS":"546.311","BSTAR":"0.00015717000000","CENTER_NAME":"EARTH","CLASSIFICATION_TYPE":"U","TLE_LINE2":"2 46703  53.0540 310.5604 0001327  86.9286 273.1855 15.06394751 53077","TLE_LINE1":"1 46703U 20073AK  21275.47596337  .00002060  00000-0  15717-3 0  9995","DECAY_DATE":null,"ELEMENT_SET_NO":"999","RA_OF_ASC_NODE":"310.5604","OBJECT_NAME":"STARLINK-1803","OBJECT_TYPE":"PAYLOAD","INCLINATION":"53.0540","NORAD_CAT_ID":"46703","EPHEMERIS_TYPE":"0","MEAN_ANOMALY":"273.1855","SEMIMAJOR_AXIS":"6925.365","OBJECT_ID":"2020-073AK","GP_ID":"186052949","FILE":"3141323","LAUNCH_DATE":"2020-10-18","COUNTRY_CODE":"US","REF_FRAME":"TEME","MEAN_MOTION":"15.06394751","MEAN_ELEMENT_THEORY":"SGP4","PERIOD":"95.592","ECCENTRICITY":"0.00013270","REV_AT_EPOCH":"5307","TIME_SYSTEM":"UTC"},{"PERIOD":"95.592","REV_AT_EPOCH":"5335","ECCENTRICITY":"0.00040260","TIME_SYSTEM":"UTC","MEAN_ELEMENT_THEORY":"SGP4","MEAN_MOTION":"15.06406031","COUNTRY_CODE":"US","LAUNCH_DATE":"2020-10-18","REF_FRAME":"TEME","EPHEMERIS_TYPE":"0","MEAN_ANOMALY":"232.5856","OBJECT_TYPE":"PAYLOAD","INCLINATION":"53.0530","NORAD_CAT_ID":"46704","GP_ID":"186052699","FILE":"3141323","OBJECT_ID":"2020-073AL","SEMIMAJOR_AXIS":"6925.330","TLE_LINE1":"1 46704U 20073AL  21275.45568851  .00003837  00000-0  27630-3 0  9994","TLE_LINE2":"2 46704  53.0530 290.6273 0004026 127.5499 232.5856 15.06406031 53350","DECAY_DATE":null,"CENTER_NAME":"EARTH","CLASSIFICATION_TYPE":"U","RA_OF_ASC_NODE":"290.6273","OBJECT_NAME":"STARLINK-1804","ELEMENT_SET_NO":"999","PERIAPSIS":"544.407","BSTAR":"0.00027630000000","RCS_SIZE":"LARGE","SITE":"AFETR","MEAN_MOTION_DDOT":"0.0000000000000","APOAPSIS":"549.983","EPOCH":"2021-10-02T10:56:11.487264","ARG_OF_PERICENTER":"127.5499","MEAN_MOTION_DOT":"0.00003837"},{"MEAN_MOTION":"15.06409274","MEAN_ELEMENT_THEORY":"SGP4","PERIOD":"95.592","TIME_SYSTEM":"UTC","REV_AT_EPOCH":"5288","ECCENTRICITY":"0.00009520","NORAD_CAT_ID":"46705","OBJECT_TYPE":"PAYLOAD","INCLINATION":"53.0549","EPHEMERIS_TYPE":"0","MEAN_ANOMALY":"271.4921","SEMIMAJOR_AXIS":"6925.320","FILE":"3141323","GP_ID":"186051447","OBJECT_ID":"2020-073AM","LAUNCH_DATE":"2020-10-18","COUNTRY_CODE":"US","REF_FRAME":"TEME","PERIAPSIS":"546.526","BSTAR":"0.00009211100000","CLASSIFICATION_TYPE":"U","CENTER_NAME":"EARTH","DECAY_DATE":null,"TLE_LINE2":"2 46705  53.0549 324.9835 0000952  88.6177 271.4921 15.06409274 52884","TLE_LINE1":"1 46705U 20073AM  21275.60173359  .00001091  00000-0  92111-4 0  9994","ELEMENT_SET_NO":"999","OBJECT_NAME":"STARLINK-1805","RA_OF_ASC_NODE":"324.9835","ARG_OF_PERICENTER":"88.6177","MEAN_MOTION_DOT":"0.00001091","SITE":"AFETR","MEAN_MOTION_DDOT":"0.0000000000000","RCS_SIZE":"LARGE","APOAPSIS":"547.844","EPOCH":"2021-10-02T14:26:29.782176"},{"PERIOD":"95.592","TIME_SYSTEM":"UTC","ECCENTRICITY":"0.00011710","REV_AT_EPOCH":"5308","MEAN_ELEMENT_THEORY":"SGP4","MEAN_MOTION":"15.06403837","COUNTRY_CODE":"US","LAUNCH_DATE":"2020-10-18","REF_FRAME":"TEME","EPHEMERIS_TYPE":"0","MEAN_ANOMALY":"271.0638","NORAD_CAT_ID":"46706","INCLINATION":"53.0540","OBJECT_TYPE":"PAYLOAD","GP_ID":"186052198","OBJECT_ID":"2020-073AN","FILE":"3141323","SEMIMAJOR_AXIS":"6925.337","TLE_LINE1":"1 46706U 20073AN  21275.50912574  .00002683  00000-0  19891-3 0  9995","TLE_LINE2":"2 46706  53.0540 310.4009 0001171  89.0485 271.0638 15.06403837 53083","DECAY_DATE":null,"CLASSIFICATION_TYPE":"U","CENTER_NAME":"EARTH","OBJECT_NAME":"STARLINK-1807","RA_OF_ASC_NODE":"310.4009","ELEMENT_SET_NO":"999","PERIAPSIS":"546.391","BSTAR":"0.00019891000000","RCS_SIZE":"LARGE","SITE":"AFETR","MEAN_MOTION_DDOT":"0.0000000000000","APOAPSIS":"548.013","EPOCH":"2021-10-02T12:13:08.463936","ARG_OF_PERICENTER":"89.0485","MEAN_MOTION_DOT":"0.00002683"},{"EPOCH":"2021-10-02T18:22:03.180576","APOAPSIS":"550.438","RCS_SIZE":"LARGE","MEAN_MOTION_DDOT":"0.0000000000000","SITE":"AFETR","MEAN_MOTION_DOT":"0.00000035","ARG_OF_PERICENTER":"126.2531","OBJECT_NAME":"STARLINK-1808","RA_OF_ASC_NODE":"289.2601","ELEMENT_SET_NO":"999","TLE_LINE1":"1 46707U 20073AP  21275.76531459  .00000035  00000-0  21361-4 0  9998","TLE_LINE2":"2 46707  53.0533 289.2601 0004601 126.2531 233.8884 15.06387681 53407","DECAY_DATE":null,"CLASSIFICATION_TYPE":"U","CENTER_NAME":"EARTH","BSTAR":"0.00002136100000","PERIAPSIS":"544.065","REF_FRAME":"TEME","COUNTRY_CODE":"US","LAUNCH_DATE":"2020-10-18","FILE":"3141323","GP_ID":"186052449","OBJECT_ID":"2020-073AP","SEMIMAJOR_AXIS":"6925.386","EPHEMERIS_TYPE":"0","MEAN_ANOMALY":"233.8884","NORAD_CAT_ID":"46707","OBJECT_TYPE":"PAYLOAD","INCLINATION":"53.0533","TIME_SYSTEM":"UTC","REV_AT_EPOCH":"5340","ECCENTRICITY":"0.00046010","PERIOD":"95.593","MEAN_ELEMENT_THEORY":"SGP4","MEAN_MOTION":"15.06387681"},{"PERIAPSIS":"486.174","BSTAR":"0.01945400000000","TLE_LINE1":"1 46708U 20073AQ  21275.76822956  .00541577  00000-0  19454-1 0  9992","TLE_LINE2":"2 46708  53.0542 288.5176 0001746 159.3497 200.7572 15.26137945 53418","DECAY_DATE":null,"CLASSIFICATION_TYPE":"U","CENTER_NAME":"EARTH","OBJECT_NAME":"STARLINK-1809","RA_OF_ASC_NODE":"288.5176","ELEMENT_SET_NO":"999","ARG_OF_PERICENTER":"159.3497","MEAN_MOTION_DOT":"0.00541577","RCS_SIZE":"LARGE","MEAN_MOTION_DDOT":"0.0000000000000","SITE":"AFETR","APOAPSIS":"488.571","EPOCH":"2021-10-02T18:26:15.033984","MEAN_ELEMENT_THEORY":"SGP4","MEAN_MOTION":"15.26137945","PERIOD":"94.356","TIME_SYSTEM":"UTC","REV_AT_EPOCH":"5341","ECCENTRICITY":"0.00017460","EPHEMERIS_TYPE":"0","MEAN_ANOMALY":"200.7572","NORAD_CAT_ID":"46708","OBJECT_TYPE":"PAYLOAD","INCLINATION":"53.0542","OBJECT_ID":"2020-073AQ","GP_ID":"186053200","FILE":"3141323","SEMIMAJOR_AXIS":"6865.508","COUNTRY_CODE":"US","LAUNCH_DATE":"2020-10-18","REF_FRAME":"TEME"},{"EPOCH":"2021-10-02T13:32:04.001280","APOAPSIS":"548.093","RCS_SIZE":"LARGE","MEAN_MOTION_DDOT":"0.0000000000000","SITE":"AFETR","MEAN_MOTION_DOT":"0.00000469","ARG_OF_PERICENTER":"86.8889","RA_OF_ASC_NODE":"325.1426","OBJECT_NAME":"STARLINK-1810","ELEMENT_SET_NO":"999","TLE_LINE1":"1 46709U 20073AR  21275.56393520  .00000469  00000-0  50371-4 0  9997","TLE_LINE2":"2 46709  53.0550 325.1426 0001293  86.8889 273.2248 15.06405193 52875","DECAY_DATE":null,"CENTER_NAME":"EARTH","CLASSIFICATION_TYPE":"U","BSTAR":"0.00005037100000","PERIAPSIS":"546.302","REF_FRAME":"TEME","COUNTRY_CODE":"US","LAUNCH_DATE":"2020-10-18","OBJECT_ID":"2020-073AR","GP_ID":"186051948","FILE":"3141323","SEMIMAJOR_AXIS":"6925.333","EPHEMERIS_TYPE":"0","MEAN_ANOMALY":"273.2248","OBJECT_TYPE":"PAYLOAD","INCLINATION":"53.0550","NORAD_CAT_ID":"46709","REV_AT_EPOCH":"5287","ECCENTRICITY":"0.00012930","TIME_SYSTEM":"UTC","PERIOD":"95.592","MEAN_ELEMENT_THEORY":"SGP4","MEAN_MOTION":"15.06405193"},{"SEMIMAJOR_AXIS":"6925.345","GP_ID":"186051698","OBJECT_ID":"2020-073AS","FILE":"3141323","NORAD_CAT_ID":"46710","OBJECT_TYPE":"PAYLOAD","INCLINATION":"53.0553","EPHEMERIS_TYPE":"0","MEAN_ANOMALY":"286.5376","REF_FRAME":"TEME","LAUNCH_DATE":"2020-10-18","COUNTRY_CODE":"US","MEAN_MOTION":"15.06401216","MEAN_ELEMENT_THEORY":"SGP4","TIME_SYSTEM":"UTC","REV_AT_EPOCH":"5287","ECCENTRICITY":"0.00012840","PERIOD":"95.592","MEAN_MOTION_DOT":"0.00001509","ARG_OF_PERICENTER":"73.5754","APOAPSIS":"548.099","EPOCH":"2021-10-02T12:40:20.825184","MEAN_MOTION_DDOT":"0.0000000000000","SITE":"AFETR","RCS_SIZE":"LARGE","BSTAR":"0.00012014000000","PERIAPSIS":"546.321","ELEMENT_SET_NO":"999","OBJECT_NAME":"STARLINK-1811","RA_OF_ASC_NODE":"325.3273","CLASSIFICATION_TYPE":"U","CENTER_NAME":"EARTH","TLE_LINE2":"2 46710  53.0553 325.3273 0001284  73.5754 286.5376 15.06401216 52877","TLE_LINE1":"1 46710U 20073AS  21275.52801881  .00001509  00000-0  12014-3 0  9996","DECAY_DATE":null},{"BSTAR":"0.00002086800000","PERIAPSIS":"546.402","OBJECT_NAME":"STARLINK-1813","RA_OF_ASC_NODE":"310.4445","ELEMENT_SET_NO":"999","DECAY_DATE":null,"TLE_LINE2":"2 46711  53.0548 310.4445 0001179  85.3506 274.7617 15.06398454 53087","TLE_LINE1":"1 46711U 20073AT  21275.50175483  .00000029  00000-0  20868-4 0  9990","CLASSIFICATION_TYPE":"U","CENTER_NAME":"EARTH","MEAN_MOTION_DOT":"0.00000029","ARG_OF_PERICENTER":"85.3506","APOAPSIS":"548.035","EPOCH":"2021-10-02T12:02:31.617312","RCS_SIZE":"LARGE","SITE":"AFETR","MEAN_MOTION_DDOT":"0.0000000000000","MEAN_ELEMENT_THEORY":"SGP4","MEAN_MOTION":"15.06398454","TIME_SYSTEM":"UTC","REV_AT_EPOCH":"5308","ECCENTRICITY":"0.00011790","PERIOD":"95.592","OBJECT_ID":"2020-073AT","GP_ID":"186052950","FILE":"3141323","SEMIMAJOR_AXIS":"6925.353","EPHEMERIS_TYPE":"0","MEAN_ANOMALY":"274.7617","NORAD_CAT_ID":"46711","OBJECT_TYPE":"PAYLOAD","INCLINATION":"53.0548","REF_FRAME":"TEME","COUNTRY_CODE":"US","LAUNCH_DATE":"2020-10-18"}];
